{"type": "FeatureCollection", "features": [ {"type": "Feature", "properties": {"norad_id": 66996, "name": "2025-292D", "group": "last-30-days", "lat": 37.80229586915505, "lon": 60.35981461977608, "alt_km": 557.6652771249028, "timestamp": "2025-12-19T20:42:58.815584+00:00", "meta": {"OBJECT_NAME": "2025-292D", "OBJECT_ID": "2025-292D", "EPOCH": "2025-12-19T06:10:55.998912", "MEAN_MOTION": 15.04637815, "ECCENTRICITY": 0.0013126, "INCLINATION": 97.6521, "RA_OF_ASC_NODE": 65.7467, "ARG_OF_PERICENTER": 251.6473, "MEAN_ANOMALY": 108.3325, "EPHEMERIS_TYPE": 0, "CLASSIFICATION_TYPE": "U", "NORAD_CAT_ID": 66996, "ELEMENT_SET_NO": 999, "REV_AT_EPOCH": 137, "BSTAR": 0.0001782249, "MEAN_MOTION_DOT": 2.446e-05, "MEAN_MOTION_DDOT": 0}, "tle": {"line1": "1 66996U 25292D   25353.25759258  .00002446  00000+0  17822-3 0  9995", "line2": "2 66996  97.6521  65.7467 0013126 251.6473 108.3325 15.04637815  1377"}}, "geometry": {"type": "Point", "coordinates": [60.35981461977608, 37.80229586915505]}}, {"type": "Feature", "properties": {"norad_id": 66997, "name": "2025-292E", "group": "last-30-days", "lat": 40.58084216480749, "lon": 59.73546495758853, "alt_km": 557.344010935356, "timestamp": "2025-12-19T20:42:58.815597+00:00", "meta": {"OBJECT_NAME": "2025-292E", "OBJECT_ID": "2025-292E", "EPOCH": "2025-12-19T06:10:13.915200", "MEAN_MOTION": 15.04723396, "ECCENTRICITY": 0.00134879, "INCLINATION": 97.6543, "RA_OF_ASC_NODE": 65.7496, "ARG_OF_PERICENTER": 252.5124, "MEAN_ANOMALY": 107.4629, "EPHEMERIS_TYPE": 0, "CLASSIFICATION_TYPE": "U", "NORAD_CAT_ID": 66997, "ELEMENT_SET_NO": 999, "REV_AT_EPOCH": 136, "BSTAR": 0.00020328778, "MEAN_MOTION_DOT": 2.806e-05, "MEAN_MOTION_DDOT": 0}, "tle": {"line1": "1 66997U 25292E   25353.25710550  .00002806  00000+0  20329-3 0  9994", "line2": "2 66997  97.6543  65.7496 0013487 252.5124 107.4629 15.04723396  1363"}}, "geometry": {"type": "Point", "coordinates": [59.73546495758853, 40.58084216480749]}}, {"type": "Feature", "properties": {"norad_id": 66998, "name": "2025-292F", "group": "last-30-days", "lat": 45.96607079747973, "lon": 58.35666494863832, "alt_km": 557.063892656076, "timestamp": "2025-12-19T20:42:58.815607+00:00", "meta": {"OBJECT_NAME": "2025-292F", "OBJECT_ID": "2025-292F", "EPOCH": "2025-12-19T06:08:52.150560", "MEAN_MOTION": 15.04890352, "ECCENTRICITY": 0.00146119, "INCLINATION": 97.6563, "RA_OF_ASC_NODE": 65.7528, "ARG_OF_PERICENTER": 253.4361, "MEAN_ANOMALY": 106.5261, "EPHEMERIS_TYPE": 0, "CLASSIFICATION_TYPE": "U", "NORAD_CAT_ID": 66998, "ELEMENT_SET_NO": 999, "REV_AT_EPOCH": 137, "BSTAR": 0.00026681258, "MEAN_MOTION_DOT": 3.721e-05, "MEAN_MOTION_DDOT": 0}, "tle": {"line1": "1 66998U 25292F   25353.25615915  .00003721  00000+0  26681-3 0  9998", "line2": "2 66998  97.6563  65.7528 0014611 253.4361 106.5261 15.04890352  1375"}}, "geometry": {"type": "Point", "coordinates": [58.35666494863832, 45.96607079747973]}}, {"type": "Feature", "properties": {"norad_id": 66999, "name": "2025-292G", "group": "last-30-days", "lat": 48.13319840525654, "lon": 57.72269503352859, "alt_km": 556.2596116875065, "timestamp": "2025-12-19T20:42:58.815618+00:00", "meta": {"OBJECT_NAME": "2025-292G", "OBJECT_ID": "2025-292G", "EPOCH": "2025-12-19T06:08:19.188960", "MEAN_MOTION": 15.04954352, "ECCENTRICITY": 0.00141323, "INCLINATION": 97.6571, "RA_OF_ASC_NODE": 65.7542, "ARG_OF_PERICENTER": 255.5516, "MEAN_ANOMALY": 104.4142, "EPHEMERIS_TYPE": 0, "CLASSIFICATION_TYPE": "U", "NORAD_CAT_ID": 66999, "ELEMENT_SET_NO": 999, "REV_AT_EPOCH": 137, "BSTAR": 0.00027604653, "MEAN_MOTION_DOT": 3.858e-05, "MEAN_MOTION_DDOT": 0}, "tle": {"line1": "1 66999U 25292G   25353.25577765  .00003858  00000+0  27605-3 0  9997", "line2": "2 66999  97.6571  65.7542 0014132 255.5516 104.4142 15.04954352  1370"}}, "geometry": {"type": "Point", "coordinates": [57.72269503352859, 48.13319840525654]}}, {"type": "Feature", "properties": {"norad_id": 67000, "name": "2025-292H", "group": "last-30-days", "lat": 48.14338179545134, "lon": 57.71914422755547, "alt_km": 556.1429283239258, "timestamp": "2025-12-19T20:42:58.815628+00:00", "meta": {"OBJECT_NAME": "2025-292H", "OBJECT_ID": "2025-292H", "EPOCH": "2025-12-17T15:50:27.314304", "MEAN_MOTION": 15.04941506, "ECCENTRICITY": 0.00140318, "INCLINATION": 97.6577, "RA_OF_ASC_NODE": 64.1722, "ARG_OF_PERICENTER": 261.5567, "MEAN_ANOMALY": 98.4069, "EPHEMERIS_TYPE": 0, "CLASSIFICATION_TYPE": "U", "NORAD_CAT_ID": 67000, "ELEMENT_SET_NO": 999, "REV_AT_EPOCH": 100, "BSTAR": 0.00033244641, "MEAN_MOTION_DOT": 4.658e-05, "MEAN_MOTION_DDOT": 0}, "tle": {"line1": "1 67000U 25292H   25351.66003836  .00004658  00000+0  33245-3 0  9993", "line2": "2 67000  97.6577  64.1722 0014031 261.5567  98.4069 15.04941506  1001"}}, "geometry": {"type": "Point", "coordinates": [57.71914422755547, 48.14338179545134]}}, {"type": "Feature", "properties": {"norad_id": 67001, "name": "2025-292J", "group": "last-30-days", "lat": 28.058607730173122, "lon": 62.23496400317751, "alt_km": 560.5191595282631, "timestamp": "2025-12-19T20:42:58.815638+00:00", "meta": {"OBJECT_NAME": "2025-292J", "OBJECT_ID": "2025-292J", "EPOCH": "2025-12-19T06:13:24.202560", "MEAN_MOTION": 15.04369894, "ECCENTRICITY": 0.00143187, "INCLINATION": 97.6564, "RA_OF_ASC_NODE": 65.7487, "ARG_OF_PERICENTER": 244.2004, "MEAN_ANOMALY": 115.7745, "EPHEMERIS_TYPE": 0, "CLASSIFICATION_TYPE": "U", "NORAD_CAT_ID": 67001, "ELEMENT_SET_NO": 999, "REV_AT_EPOCH": 137, "BSTAR": 0.00029257854, "MEAN_MOTION_DOT": 4.029e-05, "MEAN_MOTION_DDOT": 0}, "tle": {"line1": "1 67001U 25292J   25353.25930790  .00004029  00000+0  29258-3 0  9990", "line2": "2 67001  97.6564  65.7487 0014318 244.2004 115.7745 15.04369894  1373"}}, "geometry": {"type": "Point", "coordinates": [62.23496400317751, 28.058607730173122]}}, {"type": "Feature", "properties": {"norad_id": 67002, "name": "ZK-1A R/B", "group": "last-30-days", "lat": 1.4641336714273443, "lon": 67.02392650744571, "alt_km": 265.988356108709, "timestamp": "2025-12-19T20:42:58.815650+00:00", "meta": {"OBJECT_NAME": "ZK-1A R/B", "OBJECT_ID": "2025-292K", "EPOCH": "2025-12-19T03:44:27.883392", "MEAN_MOTION": 15.56639945, "ECCENTRICITY": 0.02126234, "INCLINATION": 97.7229, "RA_OF_ASC_NODE": 66.4567, "ARG_OF_PERICENTER": 342.3441, "MEAN_ANOMALY": 17.0499, "EPHEMERIS_TYPE": 0, "CLASSIFICATION_TYPE": "U", "NORAD_CAT_ID": 67002, "ELEMENT_SET_NO": 999, "REV_AT_EPOCH": 139, "BSTAR": 0.00068695857, "MEAN_MOTION_DOT": 0.00143202, "MEAN_MOTION_DDOT": 7.592293e-06}, "tle": {"line1": "1 67002U 25292K   25353.15587828  .00143202  75923-5  68696-3 0  9998", "line2": "2 67002  97.7229  66.4567 0212623 342.3441  17.0499 15.56639945  1390"}}, "geometry": {"type": "Point", "coordinates": [67.02392650744571, 1.4641336714273443]}}, {"type": "Feature", "properties": {"norad_id": 67003, "name": "STARLINK-35660", "group": "last-30-days", "lat": 29.98481783050801, "lon": 110.98106306384439, "alt_km": 293.7662506107008, "timestamp": "2025-12-19T20:42:58.815661+00:00", "meta": {"OBJECT_NAME": "STARLINK-35660", "OBJECT_ID": "2025-293A", "EPOCH": "2025-12-19T06:00:02.000160", "MEAN_MOTION": 15.94080106, "ECCENTRICITY": 0.00039221, "INCLINATION": 69.9948, "RA_OF_ASC_NODE": 304.9007, "ARG_OF_PERICENTER": 270.5051, "MEAN_ANOMALY": 321.0954, "EPHEMERIS_TYPE": 0, "CLASSIFICATION_TYPE": "U", "NORAD_CAT_ID": 67003, "ELEMENT_SET_NO": 999, "REV_AT_EPOCH": 130, "BSTAR": -0.0029090613, "MEAN_MOTION_DOT": -0.01075852, "MEAN_MOTION_DDOT": 0.00035328821}, "tle": {"line1": "1 67003U 25293A   25353.25002315 -.01075852  35329-3 -29091-2 0  9991", "line2": "2 67003  69.9948 304.9007 0003922 270.5051 321.0954 15.94080106  1304"}}, "geometry": {"type": "Point", "coordinates": [110.98106306384439, 29.98481783050801]}}, {"type": "Feature", "properties": {"norad_id": 67004, "name": "STARLINK-35913", "group": "last-30-days", "lat": 28.136112097744437, "lon": 111.8789024465254, "alt_km": 293.80890179532616, "timestamp": "2025-12-19T20:42:58.815671+00:00", "meta": {"OBJECT_NAME": "STARLINK-35913", "OBJECT_ID": "2025-293B", "EPOCH": "2025-12-19T06:00:02.000160", "MEAN_MOTION": 15.94133495, "ECCENTRICITY": 0.00038782, "INCLINATION": 69.9948, "RA_OF_ASC_NODE": 304.8983, "ARG_OF_PERICENTER": 269.6191, "MEAN_ANOMALY": 323.8779, "EPHEMERIS_TYPE": 0, "CLASSIFICATION_TYPE": "U", "NORAD_CAT_ID": 67004, "ELEMENT_SET_NO": 999, "REV_AT_EPOCH": 130, "BSTAR": -0.0029150903, "MEAN_MOTION_DOT": -0.01081065, "MEAN_MOTION_DDOT": 0.00035665051}, "tle": {"line1": "1 67004U 25293B   25353.25002315 -.01081065  35665-3 -29151-2 0  9995", "line2": "2 67004  69.9948 304.8983 0003878 269.6191 323.8779 15.94133495  1306"}}, "geometry": {"type": "Point", "coordinates": [111.8789024465254, 28.136112097744437]}}, {"type": "Feature", "properties": {"norad_id": 67005, "name": "STARLINK-36148", "group": "last-30-days", "lat": 26.162223268185937, "lon": 112.80162732011762, "alt_km": 294.0329582346103, "timestamp": "2025-12-19T20:42:58.815684+00:00", "meta": {"OBJECT_NAME": "STARLINK-36148", "OBJECT_ID": "2025-293C", "EPOCH": "2025-12-19T06:00:02.000160", "MEAN_MOTION": 15.94182839, "ECCENTRICITY": 0.00039872, "INCLINATION": 69.9951, "RA_OF_ASC_NODE": 304.8962, "ARG_OF_PERICENTER": 271.9667, "MEAN_ANOMALY": 323.5535, "EPHEMERIS_TYPE": 0, "CLASSIFICATION_TYPE": "U", "NORAD_CAT_ID": 67005, "ELEMENT_SET_NO": 999, "REV_AT_EPOCH": 130, "BSTAR": -0.0028968495, "MEAN_MOTION_DOT": -0.01077187, "MEAN_MOTION_DDOT": 0.00035447112}, "tle": {"line1": "1 67005U 25293C   25353.25002315 -.01077187  35447-3 -28968-2 0  9999", "line2": "2 67005  69.9951 304.8962 0003987 271.9667 323.5535 15.94182839  1306"}}, "geometry": {"type": "Point", "coordinates": [112.80162732011762, 26.162223268185937]}}]}